[{"OBJECT_NAME":"STARLINK-5914","OBJECT_ID":"2023-037AD","EPOCH":"2025-09-26T13:46:36.695712","MEAN_MOTION":14.98328929,"ECCENTRICITY":0.00029437,"INCLINATION":70.0002,"RA_OF_ASC_NODE":338.3998,"ARG_OF_PERICENTER":268.0381,"MEAN_ANOMALY":92.0441,"EPHEMERIS_TYPE":0,"CLASSIFICATION_TYPE":"U","NORAD_CAT_ID":55941,"ELEMENT_SET_NO":999,"REV_AT_EPOCH":13939,"BSTAR":0.00013023774,"MEAN_MOTION_DOT":1.461e-5,"MEAN_MOTION_DDOT":0},{"OBJECT_NAME":"STARLINK-5917","OBJECT_ID":"2023-037AE","EPOCH":"2025-09-26T14:10:36.346080","MEAN_MOTION":14.98334808,"ECCENTRICITY":0.00033958,"INCLINATION":70.0001,"RA_OF_ASC_NODE":338.0523,"ARG_OF_PERICENTER":272.0035,"MEAN_ANOMALY":88.0735,"EPHEMERIS_TYPE":0,"CLASSIFICATION_TYPE":"U","NORAD_CAT_ID":55942,"ELEMENT_SET_NO":999,"REV_AT_EPOCH":13940,"BSTAR":0.00015648872,"MEAN_MOTION_DOT":1.775e-5,"MEAN_MOTION_DDOT":0},{"OBJECT_NAME":"STARLINK-5932","OBJECT_ID":"2023-037AF","EPOCH":"2025-09-26T14:22:37.983072","MEAN_MOTION":14.9833013,"ECCENTRICITY":0.00030484,"INCLINATION":70.0002,"RA_OF_ASC_NODE":338.0729,"ARG_OF_PERICENTER":270.9418,"MEAN_ANOMALY":89.1392,"EPHEMERIS_TYPE":0,"CLASSIFICATION_TYPE":"U","NORAD_CAT_ID":55943,"ELEMENT_SET_NO":999,"REV_AT_EPOCH":13940,"BSTAR":0.0001004168,"MEAN_MOTION_DOT":1.105e-5,"MEAN_MOTION_DDOT":0},{"OBJECT_NAME":"STARLINK-5926","OBJECT_ID":"2023-037AG","EPOCH":"2025-09-26T14:16:37.618176","MEAN_MOTION":14.98326423,"ECCENTRICITY":0.00029425,"INCLINATION":70.0005,"RA_OF_ASC_NODE":338.0662,"ARG_OF_PERICENTER":266.4438,"MEAN_ANOMALY":93.6384,"EPHEMERIS_TYPE":0,"CLASSIFICATION_TYPE":"U","NORAD_CAT_ID":55944,"ELEMENT_SET_NO":999,"REV_AT_EPOCH":13940,"BSTAR":9.3823805e-5,"MEAN_MOTION_DOT":1.027e-5,"MEAN_MOTION_DDOT":0},{"OBJECT_NAME":"STARLINK-5925","OBJECT_ID":"2023-037AH","EPOCH":"2025-09-26T14:28:53.066208","MEAN_MOTION":14.98327266,"ECCENTRICITY":0.00035806,"INCLINATION":70.0003,"RA_OF_ASC_NODE":338.0979,"ARG_OF_PERICENTER":268.5085,"MEAN_ANOMALY":91.5664,"EPHEMERIS_TYPE":0,"CLASSIFICATION_TYPE":"U","NORAD_CAT_ID":55945,"ELEMENT_SET_NO":999,"REV_AT_EPOCH":13940,"BSTAR":0.00012605973,"MEAN_MOTION_DOT":1.411e-5,"MEAN_MOTION_DDOT":0},{"OBJECT_NAME":"STARLINK-5857","OBJECT_ID":"2023-037AJ","EPOCH":"2025-09-26T14:28:38.798976","MEAN_MOTION":14.98327365,"ECCENTRICITY":0.0003115,"INCLINATION":70.0004,"RA_OF_ASC_NODE":338.0976,"ARG_OF_PERICENTER":271.2935,"MEAN_ANOMALY":88.7867,"EPHEMERIS_TYPE":0,"CLASSIFICATION_TYPE":"U","NORAD_CAT_ID":55946,"ELEMENT_SET_NO":999,"REV_AT_EPOCH":13939,"BSTAR":8.8416247e-5,"MEAN_MOTION_DOT":9.62e-6,"MEAN_MOTION_DDOT":0},{"OBJECT_NAME":"STARLINK-5851","OBJECT_ID":"2023-037AK","EPOCH":"2025-09-26T22:00:01.999584","MEAN_MOTION":14.98328958,"ECCENTRICITY":0.00031707,"INCLINATION":70.0013,"RA_OF_ASC_NODE":337.2064,"ARG_OF_PERICENTER":272.0694,"MEAN_ANOMALY":67.4896,"EPHEMERIS_TYPE":0,"CLASSIFICATION_TYPE":"U","NORAD_CAT_ID":55947,"ELEMENT_SET_NO":999,"REV_AT_EPOCH":576,"BSTAR":-0.00077340482,"MEAN_MOTION_DOT":-9.309e-5,"MEAN_MOTION_DDOT":0},{"OBJECT_NAME":"STARLINK-5900","OBJECT_ID":"2023-037AL","EPOCH":"2025-09-26T13:10:13.294272","MEAN_MOTION":14.9832922,"ECCENTRICITY":0.00033109,"INCLINATION":69.9992,"RA_OF_ASC_NODE":318.4299,"ARG_OF_PERICENTER":269.3367,"MEAN_ANOMALY":90.7413,"EPHEMERIS_TYPE":0,"CLASSIFICATION_TYPE":"U","NORAD_CAT_ID":55948,"ELEMENT_SET_NO":999,"REV_AT_EPOCH":13988,"BSTAR":0.00012145928,"MEAN_MOTION_DOT":1.356e-5,"MEAN_MOTION_DDOT":0},{"OBJECT_NAME":"STARLINK-5899","OBJECT_ID":"2023-037AM","EPOCH":"2025-09-26T13:22:14.488896","MEAN_MOTION":14.98331064,"ECCENTRICITY":0.00038172,"INCLINATION":69.999,"RA_OF_ASC_NODE":318.4587,"ARG_OF_PERICENTER":267.8726,"MEAN_ANOMALY":92.1996,"EPHEMERIS_TYPE":0,"CLASSIFICATION_TYPE":"U","NORAD_CAT_ID":55949,"ELEMENT_SET_NO":999,"REV_AT_EPOCH":13988,"BSTAR":0.00013945113,"MEAN_MOTION_DOT":1.571e-5,"MEAN_MOTION_DDOT":0},{"OBJECT_NAME":"STARLINK-5911","OBJECT_ID":"2023-037AN","EPOCH":"2025-09-26T13:04:12.732384","MEAN_MOTION":14.98327494,"ECCENTRICITY":0.00033619,"INCLINATION":69.9991,"RA_OF_ASC_NODE":318.4154,"ARG_OF_PERICENTER":268.9377,"MEAN_ANOMALY":91.1397,"EPHEMERIS_TYPE":0,"CLASSIFICATION_TYPE":"U","NORAD_CAT_ID":55950,"ELEMENT_SET_NO":999,"REV_AT_EPOCH":13988,"BSTAR":8.1260991e-5,"MEAN_MOTION_DOT":8.77e-6,"MEAN_MOTION_DDOT":0},{"OBJECT_NAME":"STARLINK-5908","OBJECT_ID":"2023-037AP","EPOCH":"2025-09-26T14:04:35.478336","MEAN_MOTION":14.98335967,"ECCENTRICITY":0.0003122,"INCLINATION":70.0004,"RA_OF_ASC_NODE":338.0381,"ARG_OF_PERICENTER":269.3167,"MEAN_ANOMALY":90.7635,"EPHEMERIS_TYPE":0,"CLASSIFICATION_TYPE":"U","NORAD_CAT_ID":55951,"ELEMENT_SET_NO":999,"REV_AT_EPOCH":13940,"BSTAR":0.00018165039,"MEAN_MOTION_DOT":2.075e-5,"MEAN_MOTION_DDOT":0},{"OBJECT_NAME":"STARLINK-5893","OBJECT_ID":"2023-037AQ","EPOCH":"2025-09-26T13:10:27.679872","MEAN_MOTION":14.98328652,"ECCENTRICITY":0.00033052,"INCLINATION":69.9989,"RA_OF_ASC_NODE":318.4314,"ARG_OF_PERICENTER":270.5762,"MEAN_ANOMALY":89.5018,"EPHEMERIS_TYPE":0,"CLASSIFICATION_TYPE":"U","NORAD_CAT_ID":55952,"ELEMENT_SET_NO":999,"REV_AT_EPOCH":13988,"BSTAR":9.8332494e-5,"MEAN_MOTION_DOT":1.08e-5,"MEAN_MOTION_DDOT":0},{"OBJECT_NAME":"STARLINK-5892","OBJECT_ID":"2023-037AS","EPOCH":"2025-09-26T12:28:08.887584","MEAN_MOTION":14.98327775,"ECCENTRICITY":0.00032948,"INCLINATION":69.9987,"RA_OF_ASC_NODE":318.3262,"ARG_OF_PERICENTER":269.8636,"MEAN_ANOMALY":90.2146,"EPHEMERIS_TYPE":0,"CLASSIFICATION_TYPE":"U","NORAD_CAT_ID":55954,"ELEMENT_SET_NO":999,"REV_AT_EPOCH":13988,"BSTAR":6.93478e-5,"MEAN_MOTION_DOT":7.34e-6,"MEAN_MOTION_DDOT":0},{"OBJECT_NAME":"STARLINK-5878","OBJECT_ID":"2023-037AT","EPOCH":"2025-09-26T12:52:11.466912","MEAN_MOTION":14.98329403,"ECCENTRICITY":0.00031342,"INCLINATION":69.9987,"RA_OF_ASC_NODE":318.3854,"ARG_OF_PERICENTER":268.0812,"MEAN_ANOMALY":91.9989,"EPHEMERIS_TYPE":0,"CLASSIFICATION_TYPE":"U","NORAD_CAT_ID":55955,"ELEMENT_SET_NO":999,"REV_AT_EPOCH":13988,"BSTAR":0.00013455077,"MEAN_MOTION_DOT":1.513e-5,"MEAN_MOTION_DDOT":0},{"OBJECT_NAME":"STARLINK-5883","OBJECT_ID":"2023-037AU","EPOCH":"2025-09-26T13:52:15.306816","MEAN_MOTION":14.98330016,"ECCENTRICITY":0.00037807,"INCLINATION":69.9989,"RA_OF_ASC_NODE":318.1284,"ARG_OF_PERICENTER":267.7416,"MEAN_ANOMALY":92.331,"EPHEMERIS_TYPE":0,"CLASSIFICATION_TYPE":"U","NORAD_CAT_ID":55956,"ELEMENT_SET_NO":999,"REV_AT_EPOCH":13989,"BSTAR":7.9842372e-5,"MEAN_MOTION_DOT":8.6e-6,"MEAN_MOTION_DDOT":0},{"OBJECT_NAME":"STARLINK-5884","OBJECT_ID":"2023-037AV","EPOCH":"2025-09-26T12:58:12.072864","MEAN_MOTION":14.98328416,"ECCENTRICITY":0.00032897,"INCLINATION":69.9988,"RA_OF_ASC_NODE":318.3999,"ARG_OF_PERICENTER":268.8193,"MEAN_ANOMALY":91.2589,"EPHEMERIS_TYPE":0,"CLASSIFICATION_TYPE":"U","NORAD_CAT_ID":55957,"ELEMENT_SET_NO":999,"REV_AT_EPOCH":13988,"BSTAR":0.00011280909,"MEAN_MOTION_DOT":1.253e-5,"MEAN_MOTION_DDOT":0}]
