STARLINK-5914           
1 55941U 23037AD  25269.57403583  .00001461  00000+0  13024-3 0  9992
2 55941  70.0002 338.3998 0002943 268.0381  92.0441 14.98328929139394
STARLINK-5917           
1 55942U 23037AE  25269.59069845  .00001775  00000+0  15649-3 0  9997
2 55942  70.0001 338.0523 0003395 272.0035  88.0735 14.98334808139404
STARLINK-5932           
1 55943U 23037AF  25269.59905073  .00001105  00000+0  10042-3 0  9999
2 55943  70.0002 338.0729 0003048 270.9418  89.1392 14.98330130139406
STARLINK-5926           
1 55944U 23037AG  25269.59487984  .00001027  00000+0  93824-4 0  9999
2 55944  70.0005 338.0662 0002942 266.4438  93.6384 14.98326423139401
STARLINK-5925           
1 55945U 23037AH  25269.60339197  .00001411  00000+0  12606-3 0  9999
2 55945  70.0003 338.0979 0003580 268.5085  91.5664 14.98327266139405
STARLINK-5857           
1 55946U 23037AJ  25269.60322684  .00000962  00000+0  88416-4 0  9996
2 55946  70.0004 338.0976 0003115 271.2935  88.7867 14.98327365139394
STARLINK-5851           
1 55947U 23037AK  25269.91668981 -.00009309  00000+0 -77340-3 0  9993
2 55947  70.0013 337.2064 0003170 272.0694  67.4896 14.98328958  5764
STARLINK-5900           
1 55948U 23037AL  25269.54876498  .00001356  00000+0  12146-3 0  9992
2 55948  69.9992 318.4299 0003310 269.3367  90.7413 14.98329220139889
STARLINK-5899           
1 55949U 23037AM  25269.55711214  .00001571  00000+0  13945-3 0  9995
2 55949  69.9990 318.4587 0003817 267.8726  92.1996 14.98331064139883
STARLINK-5911           
1 55950U 23037AN  25269.54459181  .00000877  00000+0  81261-4 0  9993
2 55950  69.9991 318.4154 0003361 268.9377  91.1397 14.98327494139880
STARLINK-5908           
1 55951U 23037AP  25269.58652174  .00002075  00000+0  18165-3 0  9999
2 55951  70.0004 338.0381 0003122 269.3167  90.7635 14.98335967139408
STARLINK-5893           
1 55952U 23037AQ  25269.54893148  .00001080  00000+0  98332-4 0  9994
2 55952  69.9989 318.4314 0003305 270.5762  89.5018 14.98328652139880
STARLINK-5892           
1 55954U 23037AS  25269.51954731  .00000734  00000+0  69348-4 0  9999
2 55954  69.9987 318.3262 0003294 269.8636  90.2146 14.98327775139885
STARLINK-5878           
1 55955U 23037AT  25269.53624383  .00001513  00000+0  13455-3 0  9992
2 55955  69.9987 318.3854 0003134 268.0812  91.9989 14.98329403139886
STARLINK-5883           
1 55956U 23037AU  25269.57795494  .00000860  00000+0  79842-4 0  9996
2 55956  69.9989 318.1284 0003780 267.7416  92.3310 14.98330016139893
STARLINK-5884           
1 55957U 23037AV  25269.54041751  .00001253  00000+0  11281-3 0  9993
2 55957  69.9988 318.3999 0003289 268.8193  91.2589 14.98328416139882
